KINEIS-2D               
1 62930U 25028C   26199.71671157  .00000694  00000+0  10860-3 0  9995
2 62930  97.9270 251.5542 0004795 102.1578 258.0169 14.75774608 77362
KINEIS-2E               
1 62931U 25028D   26199.86114876  .00000636  00000+0  97095-4 0  9994
2 62931  97.8938 250.8187 0002116  91.9965 268.1487 14.77092860 77450
KINEIS-2A               
1 62932U 25028E   26199.74108039  .00000565  00000+0  94904-4 0  9993
2 62932  98.1285 255.1767 0005895  75.3566 284.8295 14.73455372 77259
KINEIS-2B               
1 62934U 25028G   26199.71846384  .00000542  00000+0  91146-4 0  9994
2 62934  97.9652 252.0067 0004702  65.8985 294.2715 14.73455724 77309
KINEIS-4E               
1 63300U 25056A   26199.85153105  .00000711  00000+0  12007-3 0  9996
2 63300  97.9072 322.8738 0002891  80.0614 280.0920 14.72308627 71784
KINEIS-4C               
1 63301U 25056B   26199.79589722  .00000672  00000+0  11394-3 0  9992
2 63301  97.9125 323.0712 0003075 198.6937 161.4159 14.72330181 71784
KINEIS-4D               
1 63302U 25056C   26199.86705126  .00000934  00000+0  15573-3 0  9993
2 63302  97.9047 323.1099 0001779 200.7902 159.3233 14.72209219 71790
KINEIS-4A               
1 63303U 25056D   26199.83446447  .00000656  00000+0  11154-3 0  9991
2 63303  97.9140 323.0337 0002338 146.2999 213.8358 14.72289275 71784
KINEIS-4B               
1 63304U 25056E   26199.81709911  .00000662  00000+0  11231-3 0  9991
2 63304  97.9152 323.0749 0005605 181.3453 178.7741 14.72334015 71777
