{"fetched_at":"2026-07-19T07:05:19.536Z","source":"https://celestrak.org/NORAD/elements/gp.php?NAME=KINEIS&FORMAT=JSON","constellation":"kineis","records":[{"OBJECT_NAME":"KINEIS-2D","OBJECT_ID":"2025-028C","EPOCH":"2026-07-18T17:12:03.879648","CLASSIFICATION_TYPE":"U","MEAN_MOTION":14.75774608,"ECCENTRICITY":0.0004795,"INCLINATION":97.927,"RA_OF_ASC_NODE":251.5542,"ARG_OF_PERICENTER":102.1578,"MEAN_ANOMALY":258.0169,"EPHEMERIS_TYPE":0,"NORAD_CAT_ID":62930,"ELEMENT_SET_NO":999,"REV_AT_EPOCH":7736,"BSTAR":0.0001086,"MEAN_MOTION_DOT":0.00000694,"MEAN_MOTION_DDOT":0},{"OBJECT_NAME":"KINEIS-2E","OBJECT_ID":"2025-028D","EPOCH":"2026-07-18T20:40:03.252864","CLASSIFICATION_TYPE":"U","MEAN_MOTION":14.7709286,"ECCENTRICITY":0.0002116,"INCLINATION":97.8938,"RA_OF_ASC_NODE":250.8187,"ARG_OF_PERICENTER":91.9965,"MEAN_ANOMALY":268.1487,"EPHEMERIS_TYPE":0,"NORAD_CAT_ID":62931,"ELEMENT_SET_NO":999,"REV_AT_EPOCH":7745,"BSTAR":0.000097095,"MEAN_MOTION_DOT":0.00000636,"MEAN_MOTION_DDOT":0},{"OBJECT_NAME":"KINEIS-2A","OBJECT_ID":"2025-028E","EPOCH":"2026-07-18T17:47:09.345696","CLASSIFICATION_TYPE":"U","MEAN_MOTION":14.73455372,"ECCENTRICITY":0.0005895,"INCLINATION":98.1285,"RA_OF_ASC_NODE":255.1767,"ARG_OF_PERICENTER":75.3566,"MEAN_ANOMALY":284.8295,"EPHEMERIS_TYPE":0,"NORAD_CAT_ID":62932,"ELEMENT_SET_NO":999,"REV_AT_EPOCH":7725,"BSTAR":0.000094904,"MEAN_MOTION_DOT":0.00000565,"MEAN_MOTION_DDOT":0},{"OBJECT_NAME":"KINEIS-2B","OBJECT_ID":"2025-028G","EPOCH":"2026-07-18T17:14:35.275776","CLASSIFICATION_TYPE":"U","MEAN_MOTION":14.73455724,"ECCENTRICITY":0.0004702,"INCLINATION":97.9652,"RA_OF_ASC_NODE":252.0067,"ARG_OF_PERICENTER":65.8985,"MEAN_ANOMALY":294.2715,"EPHEMERIS_TYPE":0,"NORAD_CAT_ID":62934,"ELEMENT_SET_NO":999,"REV_AT_EPOCH":7730,"BSTAR":0.000091146,"MEAN_MOTION_DOT":0.00000542,"MEAN_MOTION_DDOT":0},{"OBJECT_NAME":"KINEIS-4E","OBJECT_ID":"2025-056A","EPOCH":"2026-07-18T20:26:12.282720","CLASSIFICATION_TYPE":"U","MEAN_MOTION":14.72308627,"ECCENTRICITY":0.0002891,"INCLINATION":97.9072,"RA_OF_ASC_NODE":322.8738,"ARG_OF_PERICENTER":80.0614,"MEAN_ANOMALY":280.092,"EPHEMERIS_TYPE":0,"NORAD_CAT_ID":63300,"ELEMENT_SET_NO":999,"REV_AT_EPOCH":7178,"BSTAR":0.00012007,"MEAN_MOTION_DOT":0.00000711,"MEAN_MOTION_DDOT":0},{"OBJECT_NAME":"KINEIS-4C","OBJECT_ID":"2025-056B","EPOCH":"2026-07-18T19:06:05.519808","CLASSIFICATION_TYPE":"U","MEAN_MOTION":14.72330181,"ECCENTRICITY":0.0003075,"INCLINATION":97.9125,"RA_OF_ASC_NODE":323.0712,"ARG_OF_PERICENTER":198.6937,"MEAN_ANOMALY":161.4159,"EPHEMERIS_TYPE":0,"NORAD_CAT_ID":63301,"ELEMENT_SET_NO":999,"REV_AT_EPOCH":7178,"BSTAR":0.00011394,"MEAN_MOTION_DOT":0.00000672,"MEAN_MOTION_DDOT":0},{"OBJECT_NAME":"KINEIS-4D","OBJECT_ID":"2025-056C","EPOCH":"2026-07-18T20:48:33.228864","CLASSIFICATION_TYPE":"U","MEAN_MOTION":14.72209219,"ECCENTRICITY":0.0001779,"INCLINATION":97.9047,"RA_OF_ASC_NODE":323.1099,"ARG_OF_PERICENTER":200.7902,"MEAN_ANOMALY":159.3233,"EPHEMERIS_TYPE":0,"NORAD_CAT_ID":63302,"ELEMENT_SET_NO":999,"REV_AT_EPOCH":7179,"BSTAR":0.00015573,"MEAN_MOTION_DOT":0.00000934,"MEAN_MOTION_DDOT":0},{"OBJECT_NAME":"KINEIS-4A","OBJECT_ID":"2025-056D","EPOCH":"2026-07-18T20:01:37.730208","CLASSIFICATION_TYPE":"U","MEAN_MOTION":14.72289275,"ECCENTRICITY":0.0002338,"INCLINATION":97.914,"RA_OF_ASC_NODE":323.0337,"ARG_OF_PERICENTER":146.2999,"MEAN_ANOMALY":213.8358,"EPHEMERIS_TYPE":0,"NORAD_CAT_ID":63303,"ELEMENT_SET_NO":999,"REV_AT_EPOCH":7178,"BSTAR":0.00011154,"MEAN_MOTION_DOT":0.00000656,"MEAN_MOTION_DDOT":0},{"OBJECT_NAME":"KINEIS-4B","OBJECT_ID":"2025-056E","EPOCH":"2026-07-18T19:36:37.363104","CLASSIFICATION_TYPE":"U","MEAN_MOTION":14.72334015,"ECCENTRICITY":0.0005605,"INCLINATION":97.9152,"RA_OF_ASC_NODE":323.0749,"ARG_OF_PERICENTER":181.3453,"MEAN_ANOMALY":178.7741,"EPHEMERIS_TYPE":0,"NORAD_CAT_ID":63304,"ELEMENT_SET_NO":999,"REV_AT_EPOCH":7177,"BSTAR":0.00011231,"MEAN_MOTION_DOT":0.00000662,"MEAN_MOTION_DDOT":0}]}
